{
  "links" : {
    "next" : "https://api.nasa.gov/neo/rest/v1/feed?start_date=1997-10-23&end_date=1997-10-23&detailed=true&api_key=t0TVs3DtDT2H8Oy2Zy8m2eVrNsAVKAexjcZXUckd",
    "prev" : "https://api.nasa.gov/neo/rest/v1/feed?start_date=1997-10-21&end_date=1997-10-21&detailed=true&api_key=t0TVs3DtDT2H8Oy2Zy8m2eVrNsAVKAexjcZXUckd",
    "self" : "https://api.nasa.gov/neo/rest/v1/feed?start_date=1997-10-22&end_date=1997-10-22&detailed=true&api_key=t0TVs3DtDT2H8Oy2Zy8m2eVrNsAVKAexjcZXUckd"
  },
  "element_count" : 3,
  "near_earth_objects" : {
    "1997-10-22" : [ {
      "links" : {
        "self" : "https://api.nasa.gov/neo/rest/v1/neo/2450649?api_key=t0TVs3DtDT2H8Oy2Zy8m2eVrNsAVKAexjcZXUckd"
      },
      "neo_reference_id" : "2450649",
      "name" : "450649 (2006 UY64)",
      "nasa_jpl_url" : "http://ssd.jpl.nasa.gov/sbdb.cgi?sstr=2450649",
      "absolute_magnitude_h" : 19.5,
      "estimated_diameter" : {
        "kilometers" : {
          "estimated_diameter_min" : 0.3346223745,
          "estimated_diameter_max" : 0.7482383761
        },
        "meters" : {
          "estimated_diameter_min" : 334.6223744549,
          "estimated_diameter_max" : 748.2383760735
        },
        "miles" : {
          "estimated_diameter_min" : 0.2079246394,
          "estimated_diameter_max" : 0.464933628
        },
        "feet" : {
          "estimated_diameter_min" : 1097.8424710066,
          "estimated_diameter_max" : 2454.8503937571
        }
      },
      "is_potentially_hazardous_asteroid" : false,
      "close_approach_data" : [ {
        "close_approach_date" : "1997-10-22",
        "epoch_date_close_approach" : 877503600000,
        "relative_velocity" : {
          "kilometers_per_second" : "15.2729128495",
          "kilometers_per_hour" : "54982.4862582338",
          "miles_per_hour" : "34163.9787530676"
        },
        "miss_distance" : {
          "astronomical" : "0.1583528555",
          "lunar" : "61.5992584229",
          "kilometers" : "23689250",
          "miles" : "14719817"
        },
        "orbiting_body" : "Earth"
      } ],
      "orbital_data" : {
        "orbit_id" : "68",
        "orbit_determination_date" : "2017-04-06 09:20:11",
        "orbit_uncertainty" : "0",
        "minimum_orbit_intersection" : ".0543609",
        "jupiter_tisserand_invariant" : "6.335",
        "epoch_osculation" : "2458000.5",
        "eccentricity" : ".1572953217107533",
        "semi_major_axis" : ".9315949656446578",
        "inclination" : "26.21613896203354",
        "ascending_node_longitude" : "30.79596170964842",
        "orbital_period" : "328.4272064398105",
        "perihelion_distance" : ".7850594358194631",
        "perihelion_argument" : "210.8981090369046",
        "aphelion_distance" : "1.078130495469853",
        "perihelion_time" : "2457852.812599097322",
        "mean_anomaly" : "161.8850791970179",
        "mean_motion" : "1.096133307293395",
        "equinox" : "J2000"
      }
    }, {
      "links" : {
        "self" : "https://api.nasa.gov/neo/rest/v1/neo/3653259?api_key=t0TVs3DtDT2H8Oy2Zy8m2eVrNsAVKAexjcZXUckd"
      },
      "neo_reference_id" : "3653259",
      "name" : "(2013 UR5)",
      "nasa_jpl_url" : "http://ssd.jpl.nasa.gov/sbdb.cgi?sstr=3653259",
      "absolute_magnitude_h" : 23.0,
      "estimated_diameter" : {
        "kilometers" : {
          "estimated_diameter_min" : 0.0667659413,
          "estimated_diameter_max" : 0.1492931834
        },
        "meters" : {
          "estimated_diameter_min" : 66.7659413495,
          "estimated_diameter_max" : 149.2931834393
        },
        "miles" : {
          "estimated_diameter_min" : 0.0414864197,
          "estimated_diameter_max" : 0.0927664547
        },
        "feet" : {
          "estimated_diameter_min" : 219.0483710172,
          "estimated_diameter_max" : 489.807047955
        }
      },
      "is_potentially_hazardous_asteroid" : false,
      "close_approach_data" : [ {
        "close_approach_date" : "1997-10-22",
        "epoch_date_close_approach" : 877503600000,
        "relative_velocity" : {
          "kilometers_per_second" : "20.8442434586",
          "kilometers_per_hour" : "75039.276451068",
          "miles_per_hour" : "46626.4881926095"
        },
        "miss_distance" : {
          "astronomical" : "0.4174917484",
          "lunar" : "162.4042816162",
          "kilometers" : "62455876",
          "miles" : "38808280"
        },
        "orbiting_body" : "Earth"
      } ],
      "orbital_data" : {
        "orbit_id" : "21",
        "orbit_determination_date" : "2017-04-06 08:43:56",
        "orbit_uncertainty" : "6",
        "minimum_orbit_intersection" : ".0368816",
        "jupiter_tisserand_invariant" : "6.811",
        "epoch_osculation" : "2458000.5",
        "eccentricity" : ".2548855598787605",
        "semi_major_axis" : ".8596505972785766",
        "inclination" : "15.25544182815786",
        "ascending_node_longitude" : "29.96095417636757",
        "orbital_period" : "291.126259715286",
        "perihelion_distance" : ".6405380734911158",
        "perihelion_argument" : "207.2818711881225",
        "aphelion_distance" : "1.078763121066038",
        "perihelion_time" : "2457934.780817579849",
        "mean_anomaly" : "81.26682111875516",
        "mean_motion" : "1.236576873388442",
        "equinox" : "J2000"
      }
    }, {
      "links" : {
        "self" : "https://api.nasa.gov/neo/rest/v1/neo/3763275?api_key=t0TVs3DtDT2H8Oy2Zy8m2eVrNsAVKAexjcZXUckd"
      },
      "neo_reference_id" : "3763275",
      "name" : "(2016 VZ)",
      "nasa_jpl_url" : "http://ssd.jpl.nasa.gov/sbdb.cgi?sstr=3763275",
      "absolute_magnitude_h" : 25.9,
      "estimated_diameter" : {
        "kilometers" : {
          "estimated_diameter_min" : 0.0175612318,
          "estimated_diameter_max" : 0.0392681082
        },
        "meters" : {
          "estimated_diameter_min" : 17.561231848,
          "estimated_diameter_max" : 39.2681081809
        },
        "miles" : {
          "estimated_diameter_min" : 0.0109120402,
          "estimated_diameter_max" : 0.0244000636
        },
        "feet" : {
          "estimated_diameter_min" : 57.6155918963,
          "estimated_diameter_max" : 128.8323800441
        }
      },
      "is_potentially_hazardous_asteroid" : false,
      "close_approach_data" : [ {
        "close_approach_date" : "1997-10-22",
        "epoch_date_close_approach" : 877503600000,
        "relative_velocity" : {
          "kilometers_per_second" : "6.5020430473",
          "kilometers_per_hour" : "23407.3549702337",
          "miles_per_hour" : "14544.4200924766"
        },
        "miss_distance" : {
          "astronomical" : "0.2318612086",
          "lunar" : "90.1940078735",
          "kilometers" : "34685944",
          "miles" : "21552846"
        },
        "orbiting_body" : "Earth"
      } ],
      "orbital_data" : {
        "orbit_id" : "7",
        "orbit_determination_date" : "2017-04-06 08:22:30",
        "orbit_uncertainty" : "6",
        "minimum_orbit_intersection" : ".00794797",
        "jupiter_tisserand_invariant" : "5.871",
        "epoch_osculation" : "2458000.5",
        "eccentricity" : ".3248996908406564",
        "semi_major_axis" : "1.034555126707821",
        "inclination" : "4.181620160743995",
        "ascending_node_longitude" : "44.14761718469538",
        "orbital_period" : "384.3517675586699",
        "perihelion_distance" : ".6984284858828337",
        "perihelion_argument" : "107.8931966002987",
        "aphelion_distance" : "1.370681767532808",
        "perihelion_time" : "2458157.759534079291",
        "mean_anomaly" : "212.7041188644909",
        "mean_motion" : ".9366419784840648",
        "equinox" : "J2000"
      }
    } ]
  }
}